NUSAT-43 (R DIENG-KUNTZ)
1 56968U 23084AN  26067.91360678  .00168767  00000+0  11289-2 0  9999
2 56968  97.4369 210.0765 0005970 240.2474 119.8197 15.74780826153440
STARLINK-11579 [DTC]    
1 63143U 25043M   26068.54804850  .00270755  00000+0  20329-2 0  9990
2 63143  43.0009 251.2278 0002072 256.2547 103.8090 15.70988146 59334
