[{"OBJECT_NAME":"NUSAT-43 (R DIENG-KUNTZ)","OBJECT_ID":"2023-084AN","EPOCH":"2026-03-08T21:55:35.625792","MEAN_MOTION":15.74780826,"ECCENTRICITY":0.00059701,"INCLINATION":97.4369,"RA_OF_ASC_NODE":210.0765,"ARG_OF_PERICENTER":240.2474,"MEAN_ANOMALY":119.8197,"EPHEMERIS_TYPE":0,"CLASSIFICATION_TYPE":"U","NORAD_CAT_ID":56968,"ELEMENT_SET_NO":999,"REV_AT_EPOCH":15344,"BSTAR":0.0011289476,"MEAN_MOTION_DOT":0.00168767,"MEAN_MOTION_DDOT":0},{"OBJECT_NAME":"STARLINK-11579 [DTC]","OBJECT_ID":"2025-043M","EPOCH":"2026-03-09T13:09:11.390400","MEAN_MOTION":15.70988146,"ECCENTRICITY":0.00020726,"INCLINATION":43.0009,"RA_OF_ASC_NODE":251.2278,"ARG_OF_PERICENTER":256.2547,"MEAN_ANOMALY":103.809,"EPHEMERIS_TYPE":0,"CLASSIFICATION_TYPE":"U","NORAD_CAT_ID":63143,"ELEMENT_SET_NO":999,"REV_AT_EPOCH":5933,"BSTAR":0.0020328727,"MEAN_MOTION_DOT":0.00270755,"MEAN_MOTION_DDOT":0}]
